GSAT0101 (PRN E11)      
1 37846U 11060A   21254.03627419 -.00000064  00000-0  00000-0 0  9993
2 37846  56.8825  28.9473 0001593  62.8263 297.1902  1.70475013 61456
GSAT0102 (PRN E12)      
1 37847U 11060B   21255.42191479 -.00000068  00000-0  00000+0 0  9993
2 37847  56.8835  28.9090 0001360 329.3227 207.4494  1.70475256 61602
GSAT0103 (PRN E19)      
1 38857U 12055A   21254.07732052  .00000011  00000-0  00000-0 0  9996
2 38857  55.0616 149.3836 0002547 267.6366  92.4097  1.70473705 55346
GSAT0104 (PRN E20)      
1 38858U 12055B   21254.04790329  .00000011  00000-0  00000-0 0  9995
2 38858  55.0611 149.3857 0000152 289.6683  70.4057  1.70474045 55341
GSAT0201 (PRN E18)      
1 40128U 14050A   21254.54628581 -.00000090  00000-0  00000+0 0  9997
2 40128  50.4372 343.3954 1642525 114.3817 263.6142  1.85518847 47988
GSAT0202 (PRN E14)      
1 40129U 14050B   21254.80832271 -.00000091  00000-0  00000+0 0  9991
2 40129  50.4665 342.4373 1639614 115.1991 262.6772  1.85519483 48184
GSAT0203 (PRN E26)      
1 40544U 15017A   21253.81808756 -.00000064  00000-0  00000-0 0  9998
2 40544  56.6767  29.0249 0003030 215.4413 144.5387  1.70474837 39531
GSAT0204 (PRN E22)      
1 40545U 15017B   21254.65732823 -.00000066  00000-0  00000+0 0  9994
2 40545  56.6827  29.0130 0003428 198.0055 161.9834  1.70475612 40205
GSAT0205 (PRN E24)      
1 40889U 15045A   21254.42492192  .00000036  00000-0  00000-0 0  9990
2 40889  55.8160 269.6675 0003815 338.7744  21.2390  1.70475097 37355
GSAT0206 (PRN E30)      
1 40890U 15045B   21255.23097664  .00000037  00000-0  00000+0 0  9997
2 40890  55.8137 269.6416 0003050 309.7593  50.2428  1.70475051 37393
GSAT0209 (PRN E09)      
1 41174U 15079A   21254.82006747  .00000006  00000-0  00000+0 0  9992
2 41174  55.0775 149.0643 0003627 326.8907  33.1599  1.70472708 35709
GSAT0208 (PRN E08)      
1 41175U 15079B   21254.45315190  .00000009  00000-0  00000-0 0  9991
2 41175  55.0754 149.0733 0002916 331.6944  28.3646  1.70472686 35537
GSAT0211 (PRN E02)      
1 41549U 16030A   21254.57302392  .00000037  00000-0  00000+0 0  9997
2 41549  55.9577 269.5632 0004898 298.7065  61.2732  1.70474807 32994
GSAT0210 (PRN E01)      
1 41550U 16030B   21254.27918486  .00000037  00000-0  00000-0 0  9994
2 41550  55.9586 269.5727 0004933 273.7108  86.2620  1.70474832 33006
GSAT0207 (PRN E07)      
1 41859U 16069A   21253.93945737  .00000012  00000-0  00000-0 0  9992
2 41859  54.7364 149.3394 0003434 309.7300  50.3156  1.70472612 29738
GSAT0212 (PRN E03)      
1 41860U 16069B   21254.37946518  .00000009  00000-0  00000+0 0  9996
2 41860  54.7344 149.3248 0002827 345.2820  14.7843  1.70472651 29991
GSAT0213 (PRN E04)      
1 41861U 16069C   21254.74503402  .00000006  00000-0  00000+0 0  9996
2 41861  54.7367 149.3194 0002661 280.3181  79.7249  1.70472837 29999
GSAT0214 (PRN E05)      
1 41862U 16069D   21254.89211831  .00000005  00000-0  00000+0 0  9994
2 41862  54.7349 149.3102 0001879 292.2138  67.8387  1.70472692 29993
GSAT0215 (PRN E21)      
1 43055U 17079A   21253.62266318  .00000037  00000-0  00000-0 0  9998
2 43055  55.9348 269.4260 0004355 268.9413  91.0392  1.70474004 23312
GSAT0216 (PRN E25)      
1 43056U 17079B   21254.50167756  .00000037  00000-0  00000+0 0  9992
2 43056  55.9346 269.4016 0006125 272.1846  87.7739  1.70474115 23314
GSAT0217 (PRN E27)      
1 43057U 17079C   21254.13524970  .00000037  00000-0  00000-0 0  9998
2 43057  55.9323 269.4118 0005588 281.5510  78.4154  1.70474103 23323
GSAT0218 (PRN E31)      
1 43058U 17079D   21254.94185628  .00000037  00000-0  00000+0 0  9990
2 43058  55.9330 269.3868 0006595 269.5455  90.4074  1.70474037 23338
GSAT0221 (PRN E15)      
1 43564U 18060A   21255.42710660 -.00000068  00000-0  00000+0 0  9992
2 43564  57.0610  28.7252 0002779 245.1357 114.8368  1.70475906 19539
GSAT0222 (PRN E33)      
1 43565U 18060B   21255.06036419 -.00000067  00000-0  00000+0 0  9995
2 43565  57.0633  28.7351 0002169 253.1625 106.8149  1.70475912 19563
GSAT0219 (PRN E36)      
1 43566U 18060C   21255.28094049 -.00000068  00000-0  00000+0 0  9994
2 43566  57.0642  28.7311 0001848 249.3014 110.6801  1.70475911 19547
GSAT0220 (PRN E13)      
1 43567U 18060D   21254.32766953 -.00000065  00000-0  00000-0 0  9997
2 43567  57.0641  28.7575 0002156 242.9689 117.0097  1.70475532 19513
